{
  "norad_id": 55763,
  "name": "STARLINK-5593",
  "history": [
    {
      "epoch": "2026-03-28T17:06:28.996704Z",
      "apogee_km": 574.3276685415403,
      "perigee_km": 569.7933596833327,
      "latitude_deg": 5.909545278463426e-05,
      "longitude_deg": 113.57986309904935,
      "height_km": 574.549585842716,
      "semi_major_axis_km": 6950.197514112437,
      "eccentricity": 0.0003262,
      "inclination_deg": 70.0009,
      "raan_deg": 196.33,
      "arg_perigee_deg": 268.4507,
      "mean_anomaly_deg": 91.6279,
      "mean_motion_rev_day": 14.98328505
    }
  ]
}