{"fetched_at":"2026-03-29T16:36:15Z","count":15609,"tles":[{"name":"STARLINK-5593","line1":"1 55763U 23028Y   26087.71283561  .00000627  00000+0  60344-4 0  9992","line2":"2 55763  70.0009 196.3300 0003262 268.4507  91.6279 14.98328505168892","category":"Starlink"}]}